<?xml version="1.0" encoding="UTF-8" standalone="yes"?>
<gpx xmlns="http://www.topografix.com/GPX/1/1" xmlns:tt="TT" version="1.1" creator="TomTom MyDrive">
    <wpt lat="52.37793" lon="-0.72524">
        <type>TT_HARD</type>
    </wpt>
    <wpt lat="52.37799" lon="-0.72215">
        <type>TT_HARD</type>
    </wpt>
    <wpt lat="52.375117216598824" lon="-0.7170788258100629">
        <type>TT_HARD</type>
    </wpt>
    <wpt lat="52.369949349444454" lon="-0.7181628915442104">
        <type>TT_HARD</type>
    </wpt>
    <wpt lat="52.360913337371215" lon="-0.761314479565101">
        <type>TT_HARD</type>
    </wpt>
    <wpt lat="52.370084" lon="-0.772161">
        <type>TT_HARD</type>
    </wpt>
    <wpt lat="52.372363" lon="-0.776836">
        <type>TT_HARD</type>
    </wpt>
    <wpt lat="52.38184393004957" lon="-0.766568008446086">
        <type>TT_HARD</type>
    </wpt>
    <wpt lat="52.39343" lon="-0.743185">
        <type>TT_HARD</type>
    </wpt>
    <wpt lat="52.395502" lon="-0.730741">
        <type>TT_HARD</type>
    </wpt>
    <wpt lat="52.3933215556811" lon="-0.7226622938218554">
        <type>TT_HARD</type>
    </wpt>
    <wpt lat="52.389369" lon="-0.717045">
        <type>TT_HARD</type>
    </wpt>
    <wpt lat="52.38329492429054" lon="-0.6871280253291729">
        <type>TT_HARD</type>
    </wpt>
    <wpt lat="52.374516637791174" lon="-0.6854344789853144">
        <type>TT_HARD</type>
    </wpt>
    <wpt lat="52.37752313001462" lon="-0.721497141880036">
        <type>TT_HARD</type>
    </wpt>
    <rte>
        <name>Kettering DTC - Pytchley - Kettering Centre</name>
        <rtept lat="52.37793" lon="-0.72524">
            <type>TT_HARD</type>
        </rtept>
        <rtept lat="52.37799" lon="-0.72215">
            <type>TT_HARD</type>
        </rtept>
        <rtept lat="52.375117216598824" lon="-0.7170788258100629">
            <type>TT_HARD</type>
        </rtept>
        <rtept lat="52.369949349444454" lon="-0.7181628915442104">
            <type>TT_HARD</type>
        </rtept>
        <rtept lat="52.360913337371215" lon="-0.761314479565101">
            <type>TT_HARD</type>
        </rtept>
        <rtept lat="52.370084" lon="-0.772161">
            <type>TT_HARD</type>
        </rtept>
        <rtept lat="52.372363" lon="-0.776836">
            <type>TT_HARD</type>
        </rtept>
        <rtept lat="52.38184393004957" lon="-0.766568008446086">
            <type>TT_HARD</type>
        </rtept>
        <rtept lat="52.39343" lon="-0.743185">
            <type>TT_HARD</type>
        </rtept>
        <rtept lat="52.395502" lon="-0.730741">
            <type>TT_HARD</type>
        </rtept>
        <rtept lat="52.3933215556811" lon="-0.7226622938218554">
            <type>TT_HARD</type>
        </rtept>
        <rtept lat="52.389369" lon="-0.717045">
            <type>TT_HARD</type>
        </rtept>
        <rtept lat="52.38329492429054" lon="-0.6871280253291729">
            <type>TT_HARD</type>
        </rtept>
        <rtept lat="52.374516637791174" lon="-0.6854344789853144">
            <type>TT_HARD</type>
        </rtept>
        <rtept lat="52.37752313001462" lon="-0.721497141880036">
            <type>TT_HARD</type>
        </rtept>
    </rte>
    <trk>
        <name>Kettering DTC - Pytchley - Kettering Centre</name>
        <trkseg>
            <trkpt lat="52.37788" lon="-0.72537"/>
            <trkpt lat="52.37776" lon="-0.72525"/>
            <trkpt lat="52.37784" lon="-0.7251"/>
            <trkpt lat="52.37789" lon="-0.725"/>
            <trkpt lat="52.37793" lon="-0.72488"/>
            <trkpt lat="52.37782" lon="-0.7248"/>
            <trkpt lat="52.37776" lon="-0.72465"/>
            <trkpt lat="52.37779" lon="-0.72445"/>
            <trkpt lat="52.37812" lon="-0.72394"/>
            <trkpt lat="52.37852" lon="-0.72323"/>
            <trkpt lat="52.37853" lon="-0.72317"/>
            <trkpt lat="52.37854" lon="-0.72312"/>
            <trkpt lat="52.37854" lon="-0.72308"/>
            <trkpt lat="52.37853" lon="-0.72303"/>
            <trkpt lat="52.37851" lon="-0.72297"/>
            <trkpt lat="52.37844" lon="-0.72286"/>
            <trkpt lat="52.37825" lon="-0.72258"/>
            <trkpt lat="52.37799" lon="-0.72215"/>
            <trkpt lat="52.37799" lon="-0.72215"/>
            <trkpt lat="52.37791" lon="-0.72203"/>
            <trkpt lat="52.37769" lon="-0.72168"/>
            <trkpt lat="52.37757" lon="-0.72149"/>
            <trkpt lat="52.3776" lon="-0.72144"/>
            <trkpt lat="52.37761" lon="-0.72131"/>
            <trkpt lat="52.37759" lon="-0.72118"/>
            <trkpt lat="52.37754" lon="-0.72113"/>
            <trkpt lat="52.37751" lon="-0.72112"/>
            <trkpt lat="52.37746" lon="-0.72112"/>
            <trkpt lat="52.37742" lon="-0.72114"/>
            <trkpt lat="52.37731" lon="-0.72076"/>
            <trkpt lat="52.37727" lon="-0.72063"/>
            <trkpt lat="52.37722" lon="-0.72047"/>
            <trkpt lat="52.37719" lon="-0.72042"/>
            <trkpt lat="52.37682" lon="-0.71971"/>
            <trkpt lat="52.37676" lon="-0.71958"/>
            <trkpt lat="52.37668" lon="-0.71942"/>
            <trkpt lat="52.37673" lon="-0.7194"/>
            <trkpt lat="52.3768" lon="-0.71932"/>
            <trkpt lat="52.37686" lon="-0.71916"/>
            <trkpt lat="52.37687" lon="-0.71907"/>
            <trkpt lat="52.37687" lon="-0.71895"/>
            <trkpt lat="52.37684" lon="-0.71885"/>
            <trkpt lat="52.37681" lon="-0.71879"/>
            <trkpt lat="52.37676" lon="-0.7187"/>
            <trkpt lat="52.37669" lon="-0.71868"/>
            <trkpt lat="52.37661" lon="-0.71866"/>
            <trkpt lat="52.37631" lon="-0.71826"/>
            <trkpt lat="52.37618" lon="-0.71806"/>
            <trkpt lat="52.376" lon="-0.71784"/>
            <trkpt lat="52.37512" lon="-0.71707"/>
            <trkpt lat="52.37512" lon="-0.71707"/>
            <trkpt lat="52.37508" lon="-0.71704"/>
            <trkpt lat="52.3746" lon="-0.71662"/>
            <trkpt lat="52.37459" lon="-0.71652"/>
            <trkpt lat="52.37456" lon="-0.71644"/>
            <trkpt lat="52.37451" lon="-0.71637"/>
            <trkpt lat="52.37444" lon="-0.71632"/>
            <trkpt lat="52.37438" lon="-0.71633"/>
            <trkpt lat="52.3738" lon="-0.71563"/>
            <trkpt lat="52.37321" lon="-0.71484"/>
            <trkpt lat="52.37313" lon="-0.71474"/>
            <trkpt lat="52.37285" lon="-0.71434"/>
            <trkpt lat="52.37286" lon="-0.71421"/>
            <trkpt lat="52.37285" lon="-0.71412"/>
            <trkpt lat="52.37284" lon="-0.71399"/>
            <trkpt lat="52.37278" lon="-0.7138"/>
            <trkpt lat="52.37272" lon="-0.7137"/>
            <trkpt lat="52.3727" lon="-0.71365"/>
            <trkpt lat="52.37264" lon="-0.7136"/>
            <trkpt lat="52.37259" lon="-0.71356"/>
            <trkpt lat="52.37254" lon="-0.71354"/>
            <trkpt lat="52.37248" lon="-0.71352"/>
            <trkpt lat="52.37227" lon="-0.7135"/>
            <trkpt lat="52.37212" lon="-0.71349"/>
            <trkpt lat="52.37198" lon="-0.71349"/>
            <trkpt lat="52.37185" lon="-0.71348"/>
            <trkpt lat="52.37175" lon="-0.7135"/>
            <trkpt lat="52.37167" lon="-0.71353"/>
            <trkpt lat="52.37163" lon="-0.71357"/>
            <trkpt lat="52.37152" lon="-0.7137"/>
            <trkpt lat="52.37148" lon="-0.71377"/>
            <trkpt lat="52.37141" lon="-0.71396"/>
            <trkpt lat="52.37139" lon="-0.71407"/>
            <trkpt lat="52.37139" lon="-0.71418"/>
            <trkpt lat="52.3714" lon="-0.71428"/>
            <trkpt lat="52.37142" lon="-0.7144"/>
            <trkpt lat="52.37145" lon="-0.71447"/>
            <trkpt lat="52.37122" lon="-0.71466"/>
            <trkpt lat="52.37106" lon="-0.71476"/>
            <trkpt lat="52.37093" lon="-0.71484"/>
            <trkpt lat="52.37091" lon="-0.71486"/>
            <trkpt lat="52.37054" lon="-0.71528"/>
            <trkpt lat="52.37037" lon="-0.71563"/>
            <trkpt lat="52.3702" lon="-0.71623"/>
            <trkpt lat="52.37007" lon="-0.71747"/>
            <trkpt lat="52.36997" lon="-0.71817"/>
            <trkpt lat="52.36997" lon="-0.71817"/>
            <trkpt lat="52.36966" lon="-0.72048"/>
            <trkpt lat="52.36839" lon="-0.72454"/>
            <trkpt lat="52.36826" lon="-0.7251"/>
            <trkpt lat="52.36795" lon="-0.7265"/>
            <trkpt lat="52.36756" lon="-0.72819"/>
            <trkpt lat="52.36735" lon="-0.72934"/>
            <trkpt lat="52.36729" lon="-0.72963"/>
            <trkpt lat="52.36682" lon="-0.73109"/>
            <trkpt lat="52.3666" lon="-0.7317"/>
            <trkpt lat="52.36626" lon="-0.73267"/>
            <trkpt lat="52.36514" lon="-0.7349"/>
            <trkpt lat="52.36499" lon="-0.73538"/>
            <trkpt lat="52.36488" lon="-0.73572"/>
            <trkpt lat="52.36419" lon="-0.73795"/>
            <trkpt lat="52.36391" lon="-0.73897"/>
            <trkpt lat="52.36385" lon="-0.73922"/>
            <trkpt lat="52.36381" lon="-0.73942"/>
            <trkpt lat="52.36367" lon="-0.74023"/>
            <trkpt lat="52.36339" lon="-0.74109"/>
            <trkpt lat="52.36333" lon="-0.7413"/>
            <trkpt lat="52.36328" lon="-0.74149"/>
            <trkpt lat="52.36324" lon="-0.74215"/>
            <trkpt lat="52.36308" lon="-0.7433"/>
            <trkpt lat="52.36306" lon="-0.74491"/>
            <trkpt lat="52.3631" lon="-0.74612"/>
            <trkpt lat="52.36304" lon="-0.74707"/>
            <trkpt lat="52.36295" lon="-0.74853"/>
            <trkpt lat="52.36295" lon="-0.74969"/>
            <trkpt lat="52.36285" lon="-0.75025"/>
            <trkpt lat="52.36249" lon="-0.75191"/>
            <trkpt lat="52.36233" lon="-0.75249"/>
            <trkpt lat="52.36211" lon="-0.75318"/>
            <trkpt lat="52.36203" lon="-0.75346"/>
            <trkpt lat="52.36181" lon="-0.75453"/>
            <trkpt lat="52.36144" lon="-0.75645"/>
            <trkpt lat="52.36112" lon="-0.75831"/>
            <trkpt lat="52.36109" lon="-0.75848"/>
            <trkpt lat="52.36102" lon="-0.75924"/>
            <trkpt lat="52.36099" lon="-0.7595"/>
            <trkpt lat="52.36092" lon="-0.76132"/>
            <trkpt lat="52.36092" lon="-0.76132"/>
            <trkpt lat="52.3609" lon="-0.76178"/>
            <trkpt lat="52.36134" lon="-0.76207"/>
            <trkpt lat="52.36218" lon="-0.76298"/>
            <trkpt lat="52.36258" lon="-0.76353"/>
            <trkpt lat="52.3637" lon="-0.76509"/>
            <trkpt lat="52.36538" lon="-0.767"/>
            <trkpt lat="52.36576" lon="-0.76748"/>
            <trkpt lat="52.36599" lon="-0.76776"/>
            <trkpt lat="52.36617" lon="-0.76805"/>
            <trkpt lat="52.36627" lon="-0.76819"/>
            <trkpt lat="52.36664" lon="-0.76855"/>
            <trkpt lat="52.36669" lon="-0.76861"/>
            <trkpt lat="52.3672" lon="-0.76901"/>
            <trkpt lat="52.36724" lon="-0.76904"/>
            <trkpt lat="52.36861" lon="-0.77033"/>
            <trkpt lat="52.36934" lon="-0.77128"/>
            <trkpt lat="52.36967" lon="-0.7718"/>
            <trkpt lat="52.3699" lon="-0.77217"/>
            <trkpt lat="52.36999" lon="-0.77231"/>
            <trkpt lat="52.36999" lon="-0.77231"/>
            <trkpt lat="52.37013" lon="-0.77254"/>
            <trkpt lat="52.3703" lon="-0.77285"/>
            <trkpt lat="52.37067" lon="-0.7735"/>
            <trkpt lat="52.37109" lon="-0.7746"/>
            <trkpt lat="52.37144" lon="-0.77535"/>
            <trkpt lat="52.37158" lon="-0.77564"/>
            <trkpt lat="52.37182" lon="-0.77602"/>
            <trkpt lat="52.37223" lon="-0.7767"/>
            <trkpt lat="52.37234" lon="-0.77666"/>
            <trkpt lat="52.37234" lon="-0.77666"/>
            <trkpt lat="52.37252" lon="-0.77661"/>
            <trkpt lat="52.37287" lon="-0.7765"/>
            <trkpt lat="52.37318" lon="-0.77644"/>
            <trkpt lat="52.37327" lon="-0.77642"/>
            <trkpt lat="52.37331" lon="-0.77642"/>
            <trkpt lat="52.37384" lon="-0.7762"/>
            <trkpt lat="52.37414" lon="-0.77606"/>
            <trkpt lat="52.37424" lon="-0.77602"/>
            <trkpt lat="52.37434" lon="-0.77594"/>
            <trkpt lat="52.37484" lon="-0.77531"/>
            <trkpt lat="52.37534" lon="-0.77482"/>
            <trkpt lat="52.37553" lon="-0.77468"/>
            <trkpt lat="52.37587" lon="-0.77443"/>
            <trkpt lat="52.37632" lon="-0.77419"/>
            <trkpt lat="52.37667" lon="-0.77396"/>
            <trkpt lat="52.37706" lon="-0.7737"/>
            <trkpt lat="52.37709" lon="-0.77367"/>
            <trkpt lat="52.37769" lon="-0.773"/>
            <trkpt lat="52.37787" lon="-0.77279"/>
            <trkpt lat="52.37811" lon="-0.77248"/>
            <trkpt lat="52.37833" lon="-0.77227"/>
            <trkpt lat="52.37838" lon="-0.77223"/>
            <trkpt lat="52.37849" lon="-0.77213"/>
            <trkpt lat="52.37896" lon="-0.77147"/>
            <trkpt lat="52.37932" lon="-0.771"/>
            <trkpt lat="52.37942" lon="-0.77087"/>
            <trkpt lat="52.3795" lon="-0.77077"/>
            <trkpt lat="52.37976" lon="-0.77047"/>
            <trkpt lat="52.37982" lon="-0.77041"/>
            <trkpt lat="52.37997" lon="-0.77031"/>
            <trkpt lat="52.38005" lon="-0.77029"/>
            <trkpt lat="52.38017" lon="-0.77031"/>
            <trkpt lat="52.38023" lon="-0.77034"/>
            <trkpt lat="52.38028" lon="-0.77039"/>
            <trkpt lat="52.38045" lon="-0.77057"/>
            <trkpt lat="52.38055" lon="-0.77062"/>
            <trkpt lat="52.38072" lon="-0.77005"/>
            <trkpt lat="52.381" lon="-0.76918"/>
            <trkpt lat="52.38104" lon="-0.76904"/>
            <trkpt lat="52.38147" lon="-0.76771"/>
            <trkpt lat="52.38148" lon="-0.76757"/>
            <trkpt lat="52.38173" lon="-0.76687"/>
            <trkpt lat="52.38184" lon="-0.76657"/>
            <trkpt lat="52.38184" lon="-0.76657"/>
            <trkpt lat="52.38281" lon="-0.76385"/>
            <trkpt lat="52.38313" lon="-0.76296"/>
            <trkpt lat="52.38354" lon="-0.76183"/>
            <trkpt lat="52.38386" lon="-0.761"/>
            <trkpt lat="52.38496" lon="-0.75808"/>
            <trkpt lat="52.38553" lon="-0.75661"/>
            <trkpt lat="52.38611" lon="-0.75519"/>
            <trkpt lat="52.38643" lon="-0.7544"/>
            <trkpt lat="52.38664" lon="-0.75396"/>
            <trkpt lat="52.38687" lon="-0.75348"/>
            <trkpt lat="52.38736" lon="-0.75269"/>
            <trkpt lat="52.38764" lon="-0.75229"/>
            <trkpt lat="52.38793" lon="-0.7519"/>
            <trkpt lat="52.38858" lon="-0.75106"/>
            <trkpt lat="52.38864" lon="-0.75098"/>
            <trkpt lat="52.38911" lon="-0.75038"/>
            <trkpt lat="52.38923" lon="-0.75022"/>
            <trkpt lat="52.38933" lon="-0.75014"/>
            <trkpt lat="52.38963" lon="-0.74978"/>
            <trkpt lat="52.38969" lon="-0.74971"/>
            <trkpt lat="52.38988" lon="-0.74961"/>
            <trkpt lat="52.38994" lon="-0.74965"/>
            <trkpt lat="52.38998" lon="-0.74966"/>
            <trkpt lat="52.39005" lon="-0.74968"/>
            <trkpt lat="52.39009" lon="-0.74969"/>
            <trkpt lat="52.39014" lon="-0.74968"/>
            <trkpt lat="52.39016" lon="-0.74967"/>
            <trkpt lat="52.3902" lon="-0.74966"/>
            <trkpt lat="52.39026" lon="-0.74961"/>
            <trkpt lat="52.39035" lon="-0.7495"/>
            <trkpt lat="52.39039" lon="-0.74944"/>
            <trkpt lat="52.39042" lon="-0.74938"/>
            <trkpt lat="52.39049" lon="-0.74921"/>
            <trkpt lat="52.39054" lon="-0.74908"/>
            <trkpt lat="52.39063" lon="-0.74886"/>
            <trkpt lat="52.39068" lon="-0.74874"/>
            <trkpt lat="52.39078" lon="-0.74854"/>
            <trkpt lat="52.39082" lon="-0.74844"/>
            <trkpt lat="52.39085" lon="-0.74835"/>
            <trkpt lat="52.39086" lon="-0.74829"/>
            <trkpt lat="52.39087" lon="-0.74818"/>
            <trkpt lat="52.39086" lon="-0.74804"/>
            <trkpt lat="52.39086" lon="-0.74796"/>
            <trkpt lat="52.39097" lon="-0.74775"/>
            <trkpt lat="52.39104" lon="-0.74766"/>
            <trkpt lat="52.39117" lon="-0.74757"/>
            <trkpt lat="52.39123" lon="-0.74746"/>
            <trkpt lat="52.39151" lon="-0.74733"/>
            <trkpt lat="52.39181" lon="-0.74716"/>
            <trkpt lat="52.39195" lon="-0.74707"/>
            <trkpt lat="52.39205" lon="-0.74701"/>
            <trkpt lat="52.39218" lon="-0.7469"/>
            <trkpt lat="52.39231" lon="-0.74676"/>
            <trkpt lat="52.39245" lon="-0.74661"/>
            <trkpt lat="52.39255" lon="-0.74647"/>
            <trkpt lat="52.39262" lon="-0.74634"/>
            <trkpt lat="52.39269" lon="-0.74619"/>
            <trkpt lat="52.39273" lon="-0.74606"/>
            <trkpt lat="52.39276" lon="-0.74607"/>
            <trkpt lat="52.39279" lon="-0.74607"/>
            <trkpt lat="52.39282" lon="-0.74606"/>
            <trkpt lat="52.39285" lon="-0.74603"/>
            <trkpt lat="52.39287" lon="-0.746"/>
            <trkpt lat="52.39289" lon="-0.74596"/>
            <trkpt lat="52.39291" lon="-0.7459"/>
            <trkpt lat="52.39291" lon="-0.74584"/>
            <trkpt lat="52.3929" lon="-0.74578"/>
            <trkpt lat="52.39289" lon="-0.74573"/>
            <trkpt lat="52.39287" lon="-0.74569"/>
            <trkpt lat="52.39284" lon="-0.74567"/>
            <trkpt lat="52.39281" lon="-0.74564"/>
            <trkpt lat="52.39283" lon="-0.74542"/>
            <trkpt lat="52.39283" lon="-0.74534"/>
            <trkpt lat="52.39283" lon="-0.74526"/>
            <trkpt lat="52.3928" lon="-0.74498"/>
            <trkpt lat="52.39278" lon="-0.74487"/>
            <trkpt lat="52.39276" lon="-0.74464"/>
            <trkpt lat="52.39274" lon="-0.74425"/>
            <trkpt lat="52.39276" lon="-0.74393"/>
            <trkpt lat="52.39284" lon="-0.74357"/>
            <trkpt lat="52.39289" lon="-0.74342"/>
            <trkpt lat="52.39306" lon="-0.74307"/>
            <trkpt lat="52.39322" lon="-0.74282"/>
            <trkpt lat="52.39322" lon="-0.74282"/>
            <trkpt lat="52.39325" lon="-0.74278"/>
            <trkpt lat="52.39395" lon="-0.74197"/>
            <trkpt lat="52.39447" lon="-0.74125"/>
            <trkpt lat="52.39469" lon="-0.74082"/>
            <trkpt lat="52.39495" lon="-0.74039"/>
            <trkpt lat="52.39519" lon="-0.74006"/>
            <trkpt lat="52.39523" lon="-0.74001"/>
            <trkpt lat="52.39556" lon="-0.73965"/>
            <trkpt lat="52.3956" lon="-0.73959"/>
            <trkpt lat="52.39571" lon="-0.73947"/>
            <trkpt lat="52.39575" lon="-0.73942"/>
            <trkpt lat="52.39578" lon="-0.73932"/>
            <trkpt lat="52.3958" lon="-0.73924"/>
            <trkpt lat="52.39582" lon="-0.73908"/>
            <trkpt lat="52.39579" lon="-0.73877"/>
            <trkpt lat="52.39573" lon="-0.73826"/>
            <trkpt lat="52.39571" lon="-0.73811"/>
            <trkpt lat="52.39567" lon="-0.73782"/>
            <trkpt lat="52.39568" lon="-0.73641"/>
            <trkpt lat="52.39569" lon="-0.73586"/>
            <trkpt lat="52.3957" lon="-0.73556"/>
            <trkpt lat="52.3957" lon="-0.73463"/>
            <trkpt lat="52.39571" lon="-0.7342"/>
            <trkpt lat="52.39572" lon="-0.73381"/>
            <trkpt lat="52.39573" lon="-0.7335"/>
            <trkpt lat="52.39575" lon="-0.73301"/>
            <trkpt lat="52.39578" lon="-0.73276"/>
            <trkpt lat="52.3958" lon="-0.73276"/>
            <trkpt lat="52.39582" lon="-0.73277"/>
            <trkpt lat="52.39586" lon="-0.73277"/>
            <trkpt lat="52.39588" lon="-0.73277"/>
            <trkpt lat="52.3959" lon="-0.73276"/>
            <trkpt lat="52.39591" lon="-0.73275"/>
            <trkpt lat="52.39593" lon="-0.73272"/>
            <trkpt lat="52.39593" lon="-0.73271"/>
            <trkpt lat="52.39594" lon="-0.73268"/>
            <trkpt lat="52.39594" lon="-0.73264"/>
            <trkpt lat="52.39593" lon="-0.7326"/>
            <trkpt lat="52.39593" lon="-0.73258"/>
            <trkpt lat="52.39592" lon="-0.73256"/>
            <trkpt lat="52.39589" lon="-0.73254"/>
            <trkpt lat="52.39581" lon="-0.7324"/>
            <trkpt lat="52.39568" lon="-0.73219"/>
            <trkpt lat="52.39568" lon="-0.73215"/>
            <trkpt lat="52.39567" lon="-0.73212"/>
            <trkpt lat="52.39572" lon="-0.73199"/>
            <trkpt lat="52.39574" lon="-0.73194"/>
            <trkpt lat="52.39576" lon="-0.73187"/>
            <trkpt lat="52.39577" lon="-0.7316"/>
            <trkpt lat="52.39578" lon="-0.73129"/>
            <trkpt lat="52.39579" lon="-0.73076"/>
            <trkpt lat="52.39579" lon="-0.73076"/>
            <trkpt lat="52.39582" lon="-0.7295"/>
            <trkpt lat="52.39582" lon="-0.72932"/>
            <trkpt lat="52.39582" lon="-0.72904"/>
            <trkpt lat="52.39583" lon="-0.72882"/>
            <trkpt lat="52.39584" lon="-0.72844"/>
            <trkpt lat="52.39585" lon="-0.72837"/>
            <trkpt lat="52.39584" lon="-0.72808"/>
            <trkpt lat="52.39584" lon="-0.72804"/>
            <trkpt lat="52.39583" lon="-0.72801"/>
            <trkpt lat="52.39583" lon="-0.72798"/>
            <trkpt lat="52.39582" lon="-0.72796"/>
            <trkpt lat="52.39581" lon="-0.72794"/>
            <trkpt lat="52.39579" lon="-0.72792"/>
            <trkpt lat="52.39577" lon="-0.72791"/>
            <trkpt lat="52.39575" lon="-0.7279"/>
            <trkpt lat="52.39571" lon="-0.72788"/>
            <trkpt lat="52.39559" lon="-0.72786"/>
            <trkpt lat="52.39549" lon="-0.72784"/>
            <trkpt lat="52.39545" lon="-0.72783"/>
            <trkpt lat="52.39542" lon="-0.7278"/>
            <trkpt lat="52.3954" lon="-0.72778"/>
            <trkpt lat="52.39539" lon="-0.72777"/>
            <trkpt lat="52.39538" lon="-0.72774"/>
            <trkpt lat="52.39536" lon="-0.72768"/>
            <trkpt lat="52.39536" lon="-0.72765"/>
            <trkpt lat="52.39535" lon="-0.72761"/>
            <trkpt lat="52.39535" lon="-0.72754"/>
            <trkpt lat="52.39539" lon="-0.72724"/>
            <trkpt lat="52.39545" lon="-0.72666"/>
            <trkpt lat="52.39556" lon="-0.72573"/>
            <trkpt lat="52.39564" lon="-0.7251"/>
            <trkpt lat="52.39566" lon="-0.72493"/>
            <trkpt lat="52.39568" lon="-0.72489"/>
            <trkpt lat="52.39569" lon="-0.72483"/>
            <trkpt lat="52.39574" lon="-0.72451"/>
            <trkpt lat="52.39568" lon="-0.72449"/>
            <trkpt lat="52.39553" lon="-0.72442"/>
            <trkpt lat="52.39509" lon="-0.72425"/>
            <trkpt lat="52.39485" lon="-0.72413"/>
            <trkpt lat="52.39464" lon="-0.72394"/>
            <trkpt lat="52.39443" lon="-0.72375"/>
            <trkpt lat="52.39388" lon="-0.72325"/>
            <trkpt lat="52.3938" lon="-0.72316"/>
            <trkpt lat="52.39365" lon="-0.723"/>
            <trkpt lat="52.39332" lon="-0.72266"/>
            <trkpt lat="52.39332" lon="-0.72266"/>
            <trkpt lat="52.39324" lon="-0.72258"/>
            <trkpt lat="52.39281" lon="-0.72203"/>
            <trkpt lat="52.3926" lon="-0.72173"/>
            <trkpt lat="52.39226" lon="-0.72128"/>
            <trkpt lat="52.39212" lon="-0.72106"/>
            <trkpt lat="52.39172" lon="-0.72042"/>
            <trkpt lat="52.39163" lon="-0.72027"/>
            <trkpt lat="52.39116" lon="-0.71935"/>
            <trkpt lat="52.39096" lon="-0.71895"/>
            <trkpt lat="52.39062" lon="-0.71843"/>
            <trkpt lat="52.39042" lon="-0.71816"/>
            <trkpt lat="52.3902" lon="-0.71781"/>
            <trkpt lat="52.39002" lon="-0.71746"/>
            <trkpt lat="52.39003" lon="-0.71745"/>
            <trkpt lat="52.39004" lon="-0.71742"/>
            <trkpt lat="52.39005" lon="-0.7174"/>
            <trkpt lat="52.39006" lon="-0.71737"/>
            <trkpt lat="52.39006" lon="-0.71735"/>
            <trkpt lat="52.39006" lon="-0.71733"/>
            <trkpt lat="52.39006" lon="-0.7173"/>
            <trkpt lat="52.39005" lon="-0.71728"/>
            <trkpt lat="52.39004" lon="-0.71723"/>
            <trkpt lat="52.39002" lon="-0.71721"/>
            <trkpt lat="52.39001" lon="-0.7172"/>
            <trkpt lat="52.39" lon="-0.71719"/>
            <trkpt lat="52.38998" lon="-0.71718"/>
            <trkpt lat="52.38996" lon="-0.71718"/>
            <trkpt lat="52.38995" lon="-0.71718"/>
            <trkpt lat="52.38993" lon="-0.71719"/>
            <trkpt lat="52.38991" lon="-0.7172"/>
            <trkpt lat="52.3899" lon="-0.71722"/>
            <trkpt lat="52.38989" lon="-0.71725"/>
            <trkpt lat="52.38988" lon="-0.71728"/>
            <trkpt lat="52.38968" lon="-0.71705"/>
            <trkpt lat="52.38949" lon="-0.7168"/>
            <trkpt lat="52.38949" lon="-0.7168"/>
            <trkpt lat="52.38908" lon="-0.71626"/>
            <trkpt lat="52.38899" lon="-0.71611"/>
            <trkpt lat="52.38818" lon="-0.71501"/>
            <trkpt lat="52.38818" lon="-0.715"/>
            <trkpt lat="52.3881" lon="-0.71484"/>
            <trkpt lat="52.38805" lon="-0.71473"/>
            <trkpt lat="52.38802" lon="-0.71459"/>
            <trkpt lat="52.38795" lon="-0.71422"/>
            <trkpt lat="52.3878" lon="-0.71324"/>
            <trkpt lat="52.38765" lon="-0.71186"/>
            <trkpt lat="52.38754" lon="-0.71125"/>
            <trkpt lat="52.38742" lon="-0.71063"/>
            <trkpt lat="52.38733" lon="-0.71017"/>
            <trkpt lat="52.3873" lon="-0.71003"/>
            <trkpt lat="52.38723" lon="-0.7097"/>
            <trkpt lat="52.38717" lon="-0.70938"/>
            <trkpt lat="52.38707" lon="-0.70886"/>
            <trkpt lat="52.38699" lon="-0.70848"/>
            <trkpt lat="52.38689" lon="-0.70795"/>
            <trkpt lat="52.38659" lon="-0.70682"/>
            <trkpt lat="52.38639" lon="-0.70623"/>
            <trkpt lat="52.38636" lon="-0.70617"/>
            <trkpt lat="52.38601" lon="-0.70537"/>
            <trkpt lat="52.38582" lon="-0.70501"/>
            <trkpt lat="52.38553" lon="-0.70459"/>
            <trkpt lat="52.38536" lon="-0.7043"/>
            <trkpt lat="52.38518" lon="-0.70393"/>
            <trkpt lat="52.38503" lon="-0.70337"/>
            <trkpt lat="52.38503" lon="-0.70321"/>
            <trkpt lat="52.38503" lon="-0.70313"/>
            <trkpt lat="52.385" lon="-0.70251"/>
            <trkpt lat="52.385" lon="-0.70229"/>
            <trkpt lat="52.38503" lon="-0.70199"/>
            <trkpt lat="52.38508" lon="-0.70179"/>
            <trkpt lat="52.38512" lon="-0.70164"/>
            <trkpt lat="52.38519" lon="-0.70138"/>
            <trkpt lat="52.38561" lon="-0.70028"/>
            <trkpt lat="52.38601" lon="-0.69922"/>
            <trkpt lat="52.38608" lon="-0.69898"/>
            <trkpt lat="52.3861" lon="-0.69881"/>
            <trkpt lat="52.38613" lon="-0.69868"/>
            <trkpt lat="52.38617" lon="-0.69787"/>
            <trkpt lat="52.38617" lon="-0.69777"/>
            <trkpt lat="52.38618" lon="-0.69768"/>
            <trkpt lat="52.38624" lon="-0.69719"/>
            <trkpt lat="52.38628" lon="-0.69701"/>
            <trkpt lat="52.3863" lon="-0.69686"/>
            <trkpt lat="52.38634" lon="-0.69642"/>
            <trkpt lat="52.38634" lon="-0.69605"/>
            <trkpt lat="52.38634" lon="-0.69595"/>
            <trkpt lat="52.38632" lon="-0.69426"/>
            <trkpt lat="52.38629" lon="-0.69344"/>
            <trkpt lat="52.38628" lon="-0.69307"/>
            <trkpt lat="52.38626" lon="-0.69236"/>
            <trkpt lat="52.38617" lon="-0.69127"/>
            <trkpt lat="52.38613" lon="-0.69102"/>
            <trkpt lat="52.38609" lon="-0.69074"/>
            <trkpt lat="52.38605" lon="-0.6905"/>
            <trkpt lat="52.38589" lon="-0.68975"/>
            <trkpt lat="52.3859" lon="-0.68968"/>
            <trkpt lat="52.38585" lon="-0.68941"/>
            <trkpt lat="52.38573" lon="-0.68897"/>
            <trkpt lat="52.3856" lon="-0.68857"/>
            <trkpt lat="52.38554" lon="-0.68843"/>
            <trkpt lat="52.38547" lon="-0.68825"/>
            <trkpt lat="52.38539" lon="-0.68809"/>
            <trkpt lat="52.38525" lon="-0.6879"/>
            <trkpt lat="52.38505" lon="-0.68769"/>
            <trkpt lat="52.38497" lon="-0.68762"/>
            <trkpt lat="52.3848" lon="-0.68751"/>
            <trkpt lat="52.38453" lon="-0.68736"/>
            <trkpt lat="52.38449" lon="-0.68737"/>
            <trkpt lat="52.38408" lon="-0.68722"/>
            <trkpt lat="52.38342" lon="-0.68715"/>
            <trkpt lat="52.38329" lon="-0.68714"/>
            <trkpt lat="52.38329" lon="-0.68714"/>
            <trkpt lat="52.38306" lon="-0.68712"/>
            <trkpt lat="52.3829" lon="-0.6871"/>
            <trkpt lat="52.38281" lon="-0.68709"/>
            <trkpt lat="52.38256" lon="-0.68706"/>
            <trkpt lat="52.38232" lon="-0.68702"/>
            <trkpt lat="52.38223" lon="-0.68701"/>
            <trkpt lat="52.38198" lon="-0.68698"/>
            <trkpt lat="52.38173" lon="-0.68696"/>
            <trkpt lat="52.38155" lon="-0.68695"/>
            <trkpt lat="52.3813" lon="-0.68687"/>
            <trkpt lat="52.38031" lon="-0.68638"/>
            <trkpt lat="52.3791" lon="-0.68558"/>
            <trkpt lat="52.3781" lon="-0.68501"/>
            <trkpt lat="52.37786" lon="-0.6849"/>
            <trkpt lat="52.3778" lon="-0.68487"/>
            <trkpt lat="52.37735" lon="-0.68463"/>
            <trkpt lat="52.37728" lon="-0.68458"/>
            <trkpt lat="52.37709" lon="-0.68436"/>
            <trkpt lat="52.37704" lon="-0.68429"/>
            <trkpt lat="52.37699" lon="-0.68418"/>
            <trkpt lat="52.37691" lon="-0.68396"/>
            <trkpt lat="52.37695" lon="-0.68391"/>
            <trkpt lat="52.37697" lon="-0.68386"/>
            <trkpt lat="52.37698" lon="-0.68381"/>
            <trkpt lat="52.37698" lon="-0.68375"/>
            <trkpt lat="52.37698" lon="-0.68369"/>
            <trkpt lat="52.37697" lon="-0.68364"/>
            <trkpt lat="52.37694" lon="-0.68359"/>
            <trkpt lat="52.37692" lon="-0.68355"/>
            <trkpt lat="52.37689" lon="-0.68352"/>
            <trkpt lat="52.37686" lon="-0.6835"/>
            <trkpt lat="52.37683" lon="-0.6835"/>
            <trkpt lat="52.37679" lon="-0.68351"/>
            <trkpt lat="52.37676" lon="-0.68353"/>
            <trkpt lat="52.37673" lon="-0.68356"/>
            <trkpt lat="52.37671" lon="-0.68359"/>
            <trkpt lat="52.37669" lon="-0.68365"/>
            <trkpt lat="52.37661" lon="-0.68375"/>
            <trkpt lat="52.3765" lon="-0.68382"/>
            <trkpt lat="52.37635" lon="-0.68386"/>
            <trkpt lat="52.3763" lon="-0.68386"/>
            <trkpt lat="52.37623" lon="-0.68386"/>
            <trkpt lat="52.37615" lon="-0.68383"/>
            <trkpt lat="52.37606" lon="-0.68376"/>
            <trkpt lat="52.37602" lon="-0.68372"/>
            <trkpt lat="52.37595" lon="-0.68364"/>
            <trkpt lat="52.37595" lon="-0.68349"/>
            <trkpt lat="52.37594" lon="-0.68342"/>
            <trkpt lat="52.37592" lon="-0.68332"/>
            <trkpt lat="52.37589" lon="-0.68322"/>
            <trkpt lat="52.37585" lon="-0.68315"/>
            <trkpt lat="52.37581" lon="-0.68308"/>
            <trkpt lat="52.37574" lon="-0.68302"/>
            <trkpt lat="52.37559" lon="-0.68291"/>
            <trkpt lat="52.3755" lon="-0.68285"/>
            <trkpt lat="52.3754" lon="-0.68279"/>
            <trkpt lat="52.37534" lon="-0.68276"/>
            <trkpt lat="52.37521" lon="-0.68268"/>
            <trkpt lat="52.37502" lon="-0.68262"/>
            <trkpt lat="52.37498" lon="-0.68262"/>
            <trkpt lat="52.37493" lon="-0.68263"/>
            <trkpt lat="52.37488" lon="-0.68265"/>
            <trkpt lat="52.37481" lon="-0.68271"/>
            <trkpt lat="52.37476" lon="-0.68277"/>
            <trkpt lat="52.3747" lon="-0.68287"/>
            <trkpt lat="52.37466" lon="-0.68296"/>
            <trkpt lat="52.3746" lon="-0.68316"/>
            <trkpt lat="52.37459" lon="-0.68342"/>
            <trkpt lat="52.3746" lon="-0.68355"/>
            <trkpt lat="52.37462" lon="-0.68364"/>
            <trkpt lat="52.37465" lon="-0.68371"/>
            <trkpt lat="52.37466" lon="-0.68409"/>
            <trkpt lat="52.37465" lon="-0.68435"/>
            <trkpt lat="52.37457" lon="-0.68511"/>
            <trkpt lat="52.37453" lon="-0.68544"/>
            <trkpt lat="52.37453" lon="-0.68544"/>
            <trkpt lat="52.3745" lon="-0.68568"/>
            <trkpt lat="52.37423" lon="-0.68813"/>
            <trkpt lat="52.37422" lon="-0.68853"/>
            <trkpt lat="52.3741" lon="-0.68954"/>
            <trkpt lat="52.37402" lon="-0.69031"/>
            <trkpt lat="52.37392" lon="-0.69159"/>
            <trkpt lat="52.37389" lon="-0.692"/>
            <trkpt lat="52.37381" lon="-0.69347"/>
            <trkpt lat="52.37379" lon="-0.69389"/>
            <trkpt lat="52.37378" lon="-0.69415"/>
            <trkpt lat="52.37368" lon="-0.6957"/>
            <trkpt lat="52.37365" lon="-0.69618"/>
            <trkpt lat="52.37341" lon="-0.69879"/>
            <trkpt lat="52.37312" lon="-0.70146"/>
            <trkpt lat="52.37296" lon="-0.70259"/>
            <trkpt lat="52.37289" lon="-0.70313"/>
            <trkpt lat="52.37288" lon="-0.70319"/>
            <trkpt lat="52.37282" lon="-0.70364"/>
            <trkpt lat="52.37275" lon="-0.70421"/>
            <trkpt lat="52.37272" lon="-0.7044"/>
            <trkpt lat="52.37267" lon="-0.70479"/>
            <trkpt lat="52.37264" lon="-0.70502"/>
            <trkpt lat="52.37259" lon="-0.70537"/>
            <trkpt lat="52.37253" lon="-0.70582"/>
            <trkpt lat="52.37224" lon="-0.70767"/>
            <trkpt lat="52.37211" lon="-0.7081"/>
            <trkpt lat="52.37187" lon="-0.70966"/>
            <trkpt lat="52.37183" lon="-0.71001"/>
            <trkpt lat="52.37171" lon="-0.71121"/>
            <trkpt lat="52.37169" lon="-0.71191"/>
            <trkpt lat="52.37168" lon="-0.71224"/>
            <trkpt lat="52.37167" lon="-0.71294"/>
            <trkpt lat="52.37163" lon="-0.71357"/>
            <trkpt lat="52.37152" lon="-0.7137"/>
            <trkpt lat="52.37148" lon="-0.71377"/>
            <trkpt lat="52.37141" lon="-0.71396"/>
            <trkpt lat="52.37139" lon="-0.71407"/>
            <trkpt lat="52.37139" lon="-0.71418"/>
            <trkpt lat="52.3714" lon="-0.71428"/>
            <trkpt lat="52.37142" lon="-0.7144"/>
            <trkpt lat="52.37145" lon="-0.71447"/>
            <trkpt lat="52.37153" lon="-0.71469"/>
            <trkpt lat="52.37158" lon="-0.71476"/>
            <trkpt lat="52.37166" lon="-0.71482"/>
            <trkpt lat="52.37171" lon="-0.71485"/>
            <trkpt lat="52.372" lon="-0.71488"/>
            <trkpt lat="52.37209" lon="-0.71488"/>
            <trkpt lat="52.37225" lon="-0.71487"/>
            <trkpt lat="52.37233" lon="-0.71486"/>
            <trkpt lat="52.37251" lon="-0.71483"/>
            <trkpt lat="52.37256" lon="-0.71481"/>
            <trkpt lat="52.37262" lon="-0.71478"/>
            <trkpt lat="52.37268" lon="-0.71474"/>
            <trkpt lat="52.37273" lon="-0.71467"/>
            <trkpt lat="52.37277" lon="-0.71459"/>
            <trkpt lat="52.37287" lon="-0.71466"/>
            <trkpt lat="52.37307" lon="-0.71487"/>
            <trkpt lat="52.37309" lon="-0.7149"/>
            <trkpt lat="52.37349" lon="-0.71542"/>
            <trkpt lat="52.37361" lon="-0.71559"/>
            <trkpt lat="52.37432" lon="-0.71669"/>
            <trkpt lat="52.37433" lon="-0.71673"/>
            <trkpt lat="52.37434" lon="-0.71676"/>
            <trkpt lat="52.37437" lon="-0.7168"/>
            <trkpt lat="52.37439" lon="-0.71682"/>
            <trkpt lat="52.37444" lon="-0.71684"/>
            <trkpt lat="52.37449" lon="-0.71683"/>
            <trkpt lat="52.37466" lon="-0.71689"/>
            <trkpt lat="52.37481" lon="-0.71699"/>
            <trkpt lat="52.37508" lon="-0.71723"/>
            <trkpt lat="52.37523" lon="-0.71734"/>
            <trkpt lat="52.37578" lon="-0.71779"/>
            <trkpt lat="52.37617" lon="-0.71822"/>
            <trkpt lat="52.37621" lon="-0.71831"/>
            <trkpt lat="52.3763" lon="-0.71849"/>
            <trkpt lat="52.37641" lon="-0.71891"/>
            <trkpt lat="52.3764" lon="-0.71897"/>
            <trkpt lat="52.3764" lon="-0.71905"/>
            <trkpt lat="52.3764" lon="-0.71915"/>
            <trkpt lat="52.37642" lon="-0.71923"/>
            <trkpt lat="52.37648" lon="-0.71933"/>
            <trkpt lat="52.37652" lon="-0.71937"/>
            <trkpt lat="52.37661" lon="-0.71941"/>
            <trkpt lat="52.37668" lon="-0.71942"/>
            <trkpt lat="52.37676" lon="-0.71958"/>
            <trkpt lat="52.37682" lon="-0.71971"/>
            <trkpt lat="52.37719" lon="-0.72042"/>
            <trkpt lat="52.37722" lon="-0.72047"/>
            <trkpt lat="52.37727" lon="-0.72063"/>
            <trkpt lat="52.37731" lon="-0.72076"/>
            <trkpt lat="52.37742" lon="-0.72114"/>
            <trkpt lat="52.37735" lon="-0.72125"/>
            <trkpt lat="52.37734" lon="-0.72129"/>
            <trkpt lat="52.37734" lon="-0.72136"/>
            <trkpt lat="52.37735" lon="-0.72142"/>
            <trkpt lat="52.37738" lon="-0.72149"/>
            <trkpt lat="52.37739" lon="-0.7215"/>
            <trkpt lat="52.37747" lon="-0.72152"/>
            <trkpt lat="52.37752" lon="-0.72151"/>
            <trkpt lat="52.37753" lon="-0.72151"/>
        </trkseg>
    </trk>
</gpx>
