<?xml version="1.0" encoding="UTF-8" standalone="yes"?>
<gpx xmlns="http://www.topografix.com/GPX/1/1" xmlns:tt="TT" version="1.1" creator="TomTom MyDrive">
    <wpt lat="52.56924" lon="-0.2178">
        <type>TT_HARD</type>
    </wpt>
    <wpt lat="52.57075" lon="-0.21806">
        <type>TT_HARD</type>
    </wpt>
    <wpt lat="52.57108" lon="-0.21554">
        <type>TT_HARD</type>
    </wpt>
    <wpt lat="52.57542" lon="-0.2218">
        <type>TT_HARD</type>
    </wpt>
    <wpt lat="52.57703" lon="-0.2226">
        <type>TT_HARD</type>
    </wpt>
    <wpt lat="52.5934" lon="-0.21097">
        <type>TT_HARD</type>
    </wpt>
    <wpt lat="52.60423" lon="-0.23099">
        <type>TT_HARD</type>
    </wpt>
    <wpt lat="52.60355" lon="-0.24728">
        <type>TT_HARD</type>
    </wpt>
    <wpt lat="52.60548" lon="-0.25862">
        <type>TT_HARD</type>
    </wpt>
    <wpt lat="52.60787" lon="-0.25749">
        <type>TT_HARD</type>
    </wpt>
    <wpt lat="52.6111" lon="-0.25998">
        <type>TT_HARD</type>
    </wpt>
    <wpt lat="52.59851" lon="-0.20832">
        <type>TT_HARD</type>
    </wpt>
    <wpt lat="52.58906" lon="-0.20405">
        <type>TT_HARD</type>
    </wpt>
    <wpt lat="52.57964" lon="-0.20447">
        <type>TT_HARD</type>
    </wpt>
    <wpt lat="52.57334" lon="-0.21517">
        <type>TT_HARD</type>
    </wpt>
    <wpt lat="52.56911" lon="-0.21587">
        <type>TT_HARD</type>
    </wpt>
    <rte>
        <name>Gunthorpe - Eye RDB - Paston</name>
        <rtept lat="52.56924" lon="-0.2178">
            <type>TT_HARD</type>
        </rtept>
        <rtept lat="52.57075" lon="-0.21806">
            <type>TT_HARD</type>
        </rtept>
        <rtept lat="52.57108" lon="-0.21554">
            <type>TT_HARD</type>
        </rtept>
        <rtept lat="52.57542" lon="-0.2218">
            <type>TT_HARD</type>
        </rtept>
        <rtept lat="52.57703" lon="-0.2226">
            <type>TT_HARD</type>
        </rtept>
        <rtept lat="52.5934" lon="-0.21097">
            <type>TT_HARD</type>
        </rtept>
        <rtept lat="52.60423" lon="-0.23099">
            <type>TT_HARD</type>
        </rtept>
        <rtept lat="52.60355" lon="-0.24728">
            <type>TT_HARD</type>
        </rtept>
        <rtept lat="52.60548" lon="-0.25862">
            <type>TT_HARD</type>
        </rtept>
        <rtept lat="52.60787" lon="-0.25749">
            <type>TT_HARD</type>
        </rtept>
        <rtept lat="52.6111" lon="-0.25998">
            <type>TT_HARD</type>
        </rtept>
        <rtept lat="52.59851" lon="-0.20832">
            <type>TT_HARD</type>
        </rtept>
        <rtept lat="52.58906" lon="-0.20405">
            <type>TT_HARD</type>
        </rtept>
        <rtept lat="52.57964" lon="-0.20447">
            <type>TT_HARD</type>
        </rtept>
        <rtept lat="52.57334" lon="-0.21517">
            <type>TT_HARD</type>
        </rtept>
        <rtept lat="52.56911" lon="-0.21587">
            <type>TT_HARD</type>
        </rtept>
    </rte>
    <trk>
        <name>Gunthorpe - Eye RDB - Paston</name>
        <trkseg>
            <trkpt lat="52.56924" lon="-0.2178"/>
            <trkpt lat="52.56949" lon="-0.21796"/>
            <trkpt lat="52.56982" lon="-0.21815"/>
            <trkpt lat="52.57075" lon="-0.21806"/>
            <trkpt lat="52.57075" lon="-0.21806"/>
            <trkpt lat="52.57087" lon="-0.21805"/>
            <trkpt lat="52.57088" lon="-0.21778"/>
            <trkpt lat="52.57092" lon="-0.21679"/>
            <trkpt lat="52.57099" lon="-0.21606"/>
            <trkpt lat="52.57108" lon="-0.21554"/>
            <trkpt lat="52.57108" lon="-0.21554"/>
            <trkpt lat="52.57111" lon="-0.21536"/>
            <trkpt lat="52.57139" lon="-0.21555"/>
            <trkpt lat="52.57175" lon="-0.21579"/>
            <trkpt lat="52.57226" lon="-0.21601"/>
            <trkpt lat="52.5727" lon="-0.21622"/>
            <trkpt lat="52.57294" lon="-0.21649"/>
            <trkpt lat="52.57296" lon="-0.21659"/>
            <trkpt lat="52.57301" lon="-0.21672"/>
            <trkpt lat="52.57307" lon="-0.21679"/>
            <trkpt lat="52.57317" lon="-0.21685"/>
            <trkpt lat="52.57323" lon="-0.21685"/>
            <trkpt lat="52.57344" lon="-0.21721"/>
            <trkpt lat="52.5736" lon="-0.21775"/>
            <trkpt lat="52.57395" lon="-0.21885"/>
            <trkpt lat="52.57417" lon="-0.21939"/>
            <trkpt lat="52.57431" lon="-0.21973"/>
            <trkpt lat="52.57443" lon="-0.22002"/>
            <trkpt lat="52.57475" lon="-0.22065"/>
            <trkpt lat="52.57526" lon="-0.22155"/>
            <trkpt lat="52.57542" lon="-0.2218"/>
            <trkpt lat="52.57542" lon="-0.2218"/>
            <trkpt lat="52.57545" lon="-0.22185"/>
            <trkpt lat="52.57555" lon="-0.22214"/>
            <trkpt lat="52.57557" lon="-0.2224"/>
            <trkpt lat="52.57551" lon="-0.22263"/>
            <trkpt lat="52.57552" lon="-0.22288"/>
            <trkpt lat="52.57563" lon="-0.22336"/>
            <trkpt lat="52.5757" lon="-0.22351"/>
            <trkpt lat="52.57578" lon="-0.22371"/>
            <trkpt lat="52.57602" lon="-0.22395"/>
            <trkpt lat="52.57614" lon="-0.224"/>
            <trkpt lat="52.57635" lon="-0.22399"/>
            <trkpt lat="52.57654" lon="-0.2238"/>
            <trkpt lat="52.5767" lon="-0.22343"/>
            <trkpt lat="52.57675" lon="-0.22318"/>
            <trkpt lat="52.57691" lon="-0.22278"/>
            <trkpt lat="52.57703" lon="-0.2226"/>
            <trkpt lat="52.57703" lon="-0.2226"/>
            <trkpt lat="52.57712" lon="-0.22245"/>
            <trkpt lat="52.57829" lon="-0.22122"/>
            <trkpt lat="52.57968" lon="-0.2202"/>
            <trkpt lat="52.58056" lon="-0.21982"/>
            <trkpt lat="52.58057" lon="-0.21982"/>
            <trkpt lat="52.58085" lon="-0.21973"/>
            <trkpt lat="52.58257" lon="-0.21919"/>
            <trkpt lat="52.58269" lon="-0.21914"/>
            <trkpt lat="52.58386" lon="-0.21851"/>
            <trkpt lat="52.58442" lon="-0.21814"/>
            <trkpt lat="52.5861" lon="-0.2169"/>
            <trkpt lat="52.5867" lon="-0.21649"/>
            <trkpt lat="52.58683" lon="-0.2164"/>
            <trkpt lat="52.58877" lon="-0.21513"/>
            <trkpt lat="52.58907" lon="-0.2149"/>
            <trkpt lat="52.59032" lon="-0.21383"/>
            <trkpt lat="52.59175" lon="-0.21231"/>
            <trkpt lat="52.59182" lon="-0.21224"/>
            <trkpt lat="52.5925" lon="-0.21164"/>
            <trkpt lat="52.5934" lon="-0.21097"/>
            <trkpt lat="52.5934" lon="-0.21097"/>
            <trkpt lat="52.59385" lon="-0.21063"/>
            <trkpt lat="52.59521" lon="-0.20991"/>
            <trkpt lat="52.59668" lon="-0.20941"/>
            <trkpt lat="52.59704" lon="-0.20934"/>
            <trkpt lat="52.59758" lon="-0.20935"/>
            <trkpt lat="52.59781" lon="-0.20938"/>
            <trkpt lat="52.59815" lon="-0.20964"/>
            <trkpt lat="52.59817" lon="-0.20972"/>
            <trkpt lat="52.59819" lon="-0.2098"/>
            <trkpt lat="52.59833" lon="-0.2101"/>
            <trkpt lat="52.59843" lon="-0.21104"/>
            <trkpt lat="52.59844" lon="-0.21118"/>
            <trkpt lat="52.59844" lon="-0.21178"/>
            <trkpt lat="52.59846" lon="-0.21282"/>
            <trkpt lat="52.59858" lon="-0.21473"/>
            <trkpt lat="52.59875" lon="-0.21614"/>
            <trkpt lat="52.59894" lon="-0.21717"/>
            <trkpt lat="52.59932" lon="-0.21869"/>
            <trkpt lat="52.59969" lon="-0.21973"/>
            <trkpt lat="52.59996" lon="-0.22055"/>
            <trkpt lat="52.60025" lon="-0.22123"/>
            <trkpt lat="52.60148" lon="-0.22359"/>
            <trkpt lat="52.602" lon="-0.2245"/>
            <trkpt lat="52.60216" lon="-0.22493"/>
            <trkpt lat="52.60254" lon="-0.22565"/>
            <trkpt lat="52.60255" lon="-0.22567"/>
            <trkpt lat="52.60294" lon="-0.22634"/>
            <trkpt lat="52.60311" lon="-0.22663"/>
            <trkpt lat="52.60388" lon="-0.228"/>
            <trkpt lat="52.60444" lon="-0.22915"/>
            <trkpt lat="52.60452" lon="-0.22944"/>
            <trkpt lat="52.60451" lon="-0.22958"/>
            <trkpt lat="52.60456" lon="-0.22988"/>
            <trkpt lat="52.60445" lon="-0.23042"/>
            <trkpt lat="52.6043" lon="-0.23077"/>
            <trkpt lat="52.60423" lon="-0.23099"/>
            <trkpt lat="52.60423" lon="-0.23099"/>
            <trkpt lat="52.60381" lon="-0.23228"/>
            <trkpt lat="52.60348" lon="-0.23385"/>
            <trkpt lat="52.60335" lon="-0.23511"/>
            <trkpt lat="52.60337" lon="-0.23689"/>
            <trkpt lat="52.60352" lon="-0.23937"/>
            <trkpt lat="52.60354" lon="-0.24039"/>
            <trkpt lat="52.60354" lon="-0.2417"/>
            <trkpt lat="52.60354" lon="-0.24202"/>
            <trkpt lat="52.60344" lon="-0.24264"/>
            <trkpt lat="52.60335" lon="-0.24329"/>
            <trkpt lat="52.60314" lon="-0.24456"/>
            <trkpt lat="52.60295" lon="-0.24534"/>
            <trkpt lat="52.60282" lon="-0.24558"/>
            <trkpt lat="52.60266" lon="-0.24567"/>
            <trkpt lat="52.60258" lon="-0.24587"/>
            <trkpt lat="52.60255" lon="-0.24598"/>
            <trkpt lat="52.60254" lon="-0.24608"/>
            <trkpt lat="52.60253" lon="-0.24613"/>
            <trkpt lat="52.60253" lon="-0.24647"/>
            <trkpt lat="52.60254" lon="-0.24648"/>
            <trkpt lat="52.60256" lon="-0.24655"/>
            <trkpt lat="52.60267" lon="-0.24673"/>
            <trkpt lat="52.60282" lon="-0.24687"/>
            <trkpt lat="52.6029" lon="-0.24693"/>
            <trkpt lat="52.60311" lon="-0.24706"/>
            <trkpt lat="52.60329" lon="-0.24704"/>
            <trkpt lat="52.60337" lon="-0.24698"/>
            <trkpt lat="52.60343" lon="-0.24692"/>
            <trkpt lat="52.60353" lon="-0.24716"/>
            <trkpt lat="52.60355" lon="-0.24728"/>
            <trkpt lat="52.60355" lon="-0.24728"/>
            <trkpt lat="52.60357" lon="-0.24741"/>
            <trkpt lat="52.60356" lon="-0.24783"/>
            <trkpt lat="52.60349" lon="-0.24808"/>
            <trkpt lat="52.60324" lon="-0.24853"/>
            <trkpt lat="52.60254" lon="-0.24909"/>
            <trkpt lat="52.60226" lon="-0.24931"/>
            <trkpt lat="52.60194" lon="-0.24975"/>
            <trkpt lat="52.60191" lon="-0.24983"/>
            <trkpt lat="52.60187" lon="-0.24991"/>
            <trkpt lat="52.6018" lon="-0.25017"/>
            <trkpt lat="52.60179" lon="-0.25056"/>
            <trkpt lat="52.60179" lon="-0.25064"/>
            <trkpt lat="52.6018" lon="-0.25078"/>
            <trkpt lat="52.60182" lon="-0.25085"/>
            <trkpt lat="52.60191" lon="-0.25109"/>
            <trkpt lat="52.602" lon="-0.25126"/>
            <trkpt lat="52.6022" lon="-0.2516"/>
            <trkpt lat="52.60222" lon="-0.25167"/>
            <trkpt lat="52.60254" lon="-0.25228"/>
            <trkpt lat="52.60339" lon="-0.25397"/>
            <trkpt lat="52.60348" lon="-0.25417"/>
            <trkpt lat="52.60365" lon="-0.25453"/>
            <trkpt lat="52.60397" lon="-0.25521"/>
            <trkpt lat="52.60429" lon="-0.25597"/>
            <trkpt lat="52.60488" lon="-0.25778"/>
            <trkpt lat="52.60504" lon="-0.2583"/>
            <trkpt lat="52.60507" lon="-0.25841"/>
            <trkpt lat="52.60518" lon="-0.25875"/>
            <trkpt lat="52.60514" lon="-0.25887"/>
            <trkpt lat="52.60512" lon="-0.25891"/>
            <trkpt lat="52.60514" lon="-0.25905"/>
            <trkpt lat="52.60515" lon="-0.25908"/>
            <trkpt lat="52.60518" lon="-0.25914"/>
            <trkpt lat="52.60526" lon="-0.25919"/>
            <trkpt lat="52.60535" lon="-0.25912"/>
            <trkpt lat="52.6054" lon="-0.25897"/>
            <trkpt lat="52.60539" lon="-0.25888"/>
            <trkpt lat="52.60538" lon="-0.25883"/>
            <trkpt lat="52.60533" lon="-0.25875"/>
            <trkpt lat="52.60536" lon="-0.25872"/>
            <trkpt lat="52.6054" lon="-0.25866"/>
            <trkpt lat="52.60548" lon="-0.25862"/>
            <trkpt lat="52.60548" lon="-0.25862"/>
            <trkpt lat="52.60565" lon="-0.25853"/>
            <trkpt lat="52.60618" lon="-0.25819"/>
            <trkpt lat="52.60647" lon="-0.25778"/>
            <trkpt lat="52.60677" lon="-0.25736"/>
            <trkpt lat="52.60759" lon="-0.25673"/>
            <trkpt lat="52.60776" lon="-0.2573"/>
            <trkpt lat="52.60787" lon="-0.25749"/>
            <trkpt lat="52.60787" lon="-0.25749"/>
            <trkpt lat="52.60801" lon="-0.25776"/>
            <trkpt lat="52.6085" lon="-0.25862"/>
            <trkpt lat="52.60908" lon="-0.25941"/>
            <trkpt lat="52.60958" lon="-0.26"/>
            <trkpt lat="52.60985" lon="-0.26023"/>
            <trkpt lat="52.61103" lon="-0.2608"/>
            <trkpt lat="52.6111" lon="-0.2603"/>
            <trkpt lat="52.6111" lon="-0.25998"/>
            <trkpt lat="52.6111" lon="-0.25998"/>
            <trkpt lat="52.61109" lon="-0.25964"/>
            <trkpt lat="52.61107" lon="-0.25898"/>
            <trkpt lat="52.6111" lon="-0.25836"/>
            <trkpt lat="52.61127" lon="-0.25731"/>
            <trkpt lat="52.61144" lon="-0.25617"/>
            <trkpt lat="52.61168" lon="-0.25317"/>
            <trkpt lat="52.61171" lon="-0.25272"/>
            <trkpt lat="52.61173" lon="-0.25211"/>
            <trkpt lat="52.61181" lon="-0.25077"/>
            <trkpt lat="52.61183" lon="-0.25065"/>
            <trkpt lat="52.61201" lon="-0.25"/>
            <trkpt lat="52.6123" lon="-0.2495"/>
            <trkpt lat="52.61271" lon="-0.24907"/>
            <trkpt lat="52.61334" lon="-0.2485"/>
            <trkpt lat="52.61359" lon="-0.24801"/>
            <trkpt lat="52.61372" lon="-0.24775"/>
            <trkpt lat="52.61389" lon="-0.24789"/>
            <trkpt lat="52.61394" lon="-0.2479"/>
            <trkpt lat="52.61402" lon="-0.24789"/>
            <trkpt lat="52.61417" lon="-0.24779"/>
            <trkpt lat="52.61421" lon="-0.24774"/>
            <trkpt lat="52.61425" lon="-0.24765"/>
            <trkpt lat="52.61429" lon="-0.24755"/>
            <trkpt lat="52.6143" lon="-0.24733"/>
            <trkpt lat="52.61429" lon="-0.24724"/>
            <trkpt lat="52.61421" lon="-0.247"/>
            <trkpt lat="52.61416" lon="-0.24691"/>
            <trkpt lat="52.61407" lon="-0.24684"/>
            <trkpt lat="52.61393" lon="-0.24681"/>
            <trkpt lat="52.61388" lon="-0.24682"/>
            <trkpt lat="52.6136" lon="-0.24662"/>
            <trkpt lat="52.61151" lon="-0.24293"/>
            <trkpt lat="52.61085" lon="-0.2417"/>
            <trkpt lat="52.61038" lon="-0.2408"/>
            <trkpt lat="52.6095" lon="-0.23903"/>
            <trkpt lat="52.60831" lon="-0.2364"/>
            <trkpt lat="52.60751" lon="-0.23441"/>
            <trkpt lat="52.6073" lon="-0.23394"/>
            <trkpt lat="52.60724" lon="-0.23378"/>
            <trkpt lat="52.60706" lon="-0.23335"/>
            <trkpt lat="52.60571" lon="-0.23057"/>
            <trkpt lat="52.60539" lon="-0.22995"/>
            <trkpt lat="52.60533" lon="-0.22984"/>
            <trkpt lat="52.60477" lon="-0.22882"/>
            <trkpt lat="52.60408" lon="-0.22768"/>
            <trkpt lat="52.60326" lon="-0.22638"/>
            <trkpt lat="52.60254" lon="-0.22519"/>
            <trkpt lat="52.60232" lon="-0.22484"/>
            <trkpt lat="52.60201" lon="-0.22432"/>
            <trkpt lat="52.60197" lon="-0.22423"/>
            <trkpt lat="52.60112" lon="-0.2227"/>
            <trkpt lat="52.60024" lon="-0.22093"/>
            <trkpt lat="52.59979" lon="-0.21973"/>
            <trkpt lat="52.59952" lon="-0.219"/>
            <trkpt lat="52.59906" lon="-0.21723"/>
            <trkpt lat="52.59878" lon="-0.21565"/>
            <trkpt lat="52.59868" lon="-0.21473"/>
            <trkpt lat="52.59859" lon="-0.21359"/>
            <trkpt lat="52.59857" lon="-0.21242"/>
            <trkpt lat="52.59857" lon="-0.2113"/>
            <trkpt lat="52.59859" lon="-0.21079"/>
            <trkpt lat="52.59861" lon="-0.2107"/>
            <trkpt lat="52.59883" lon="-0.2102"/>
            <trkpt lat="52.59888" lon="-0.21012"/>
            <trkpt lat="52.59891" lon="-0.21007"/>
            <trkpt lat="52.59899" lon="-0.20979"/>
            <trkpt lat="52.59897" lon="-0.20942"/>
            <trkpt lat="52.59879" lon="-0.20907"/>
            <trkpt lat="52.59851" lon="-0.20832"/>
            <trkpt lat="52.59851" lon="-0.20832"/>
            <trkpt lat="52.59841" lon="-0.20804"/>
            <trkpt lat="52.59838" lon="-0.20799"/>
            <trkpt lat="52.59832" lon="-0.2073"/>
            <trkpt lat="52.59826" lon="-0.20688"/>
            <trkpt lat="52.59818" lon="-0.20639"/>
            <trkpt lat="52.5979" lon="-0.20539"/>
            <trkpt lat="52.59769" lon="-0.2048"/>
            <trkpt lat="52.59716" lon="-0.20405"/>
            <trkpt lat="52.59706" lon="-0.20393"/>
            <trkpt lat="52.59665" lon="-0.2036"/>
            <trkpt lat="52.59612" lon="-0.20335"/>
            <trkpt lat="52.59554" lon="-0.2032"/>
            <trkpt lat="52.59485" lon="-0.20319"/>
            <trkpt lat="52.59439" lon="-0.20328"/>
            <trkpt lat="52.59367" lon="-0.20357"/>
            <trkpt lat="52.59323" lon="-0.20393"/>
            <trkpt lat="52.59287" lon="-0.20426"/>
            <trkpt lat="52.59281" lon="-0.20411"/>
            <trkpt lat="52.59274" lon="-0.20406"/>
            <trkpt lat="52.59268" lon="-0.20407"/>
            <trkpt lat="52.59261" lon="-0.20413"/>
            <trkpt lat="52.59258" lon="-0.20421"/>
            <trkpt lat="52.59256" lon="-0.20437"/>
            <trkpt lat="52.59183" lon="-0.20501"/>
            <trkpt lat="52.59116" lon="-0.20545"/>
            <trkpt lat="52.59104" lon="-0.20551"/>
            <trkpt lat="52.59077" lon="-0.20566"/>
            <trkpt lat="52.59073" lon="-0.20565"/>
            <trkpt lat="52.59006" lon="-0.20567"/>
            <trkpt lat="52.59002" lon="-0.20564"/>
            <trkpt lat="52.58999" lon="-0.20536"/>
            <trkpt lat="52.58973" lon="-0.20457"/>
            <trkpt lat="52.58941" lon="-0.20415"/>
            <trkpt lat="52.58932" lon="-0.20414"/>
            <trkpt lat="52.58927" lon="-0.20409"/>
            <trkpt lat="52.58906" lon="-0.20405"/>
            <trkpt lat="52.58906" lon="-0.20405"/>
            <trkpt lat="52.58871" lon="-0.20398"/>
            <trkpt lat="52.58807" lon="-0.20392"/>
            <trkpt lat="52.58736" lon="-0.20373"/>
            <trkpt lat="52.58669" lon="-0.20365"/>
            <trkpt lat="52.58558" lon="-0.2037"/>
            <trkpt lat="52.58457" lon="-0.20376"/>
            <trkpt lat="52.5842" lon="-0.20377"/>
            <trkpt lat="52.5839" lon="-0.20377"/>
            <trkpt lat="52.58344" lon="-0.20378"/>
            <trkpt lat="52.58219" lon="-0.20382"/>
            <trkpt lat="52.5814" lon="-0.20383"/>
            <trkpt lat="52.58087" lon="-0.20385"/>
            <trkpt lat="52.58057" lon="-0.20387"/>
            <trkpt lat="52.57961" lon="-0.20397"/>
            <trkpt lat="52.57964" lon="-0.20447"/>
            <trkpt lat="52.57964" lon="-0.20447"/>
            <trkpt lat="52.57973" lon="-0.20522"/>
            <trkpt lat="52.57994" lon="-0.20629"/>
            <trkpt lat="52.58005" lon="-0.20665"/>
            <trkpt lat="52.58008" lon="-0.20692"/>
            <trkpt lat="52.58004" lon="-0.207"/>
            <trkpt lat="52.58004" lon="-0.20706"/>
            <trkpt lat="52.57995" lon="-0.20722"/>
            <trkpt lat="52.57975" lon="-0.20741"/>
            <trkpt lat="52.5787" lon="-0.20841"/>
            <trkpt lat="52.57728" lon="-0.20972"/>
            <trkpt lat="52.57726" lon="-0.20972"/>
            <trkpt lat="52.57698" lon="-0.20978"/>
            <trkpt lat="52.57671" lon="-0.20977"/>
            <trkpt lat="52.57668" lon="-0.20974"/>
            <trkpt lat="52.57663" lon="-0.20974"/>
            <trkpt lat="52.5766" lon="-0.20975"/>
            <trkpt lat="52.57655" lon="-0.20981"/>
            <trkpt lat="52.57654" lon="-0.20985"/>
            <trkpt lat="52.57654" lon="-0.2099"/>
            <trkpt lat="52.57645" lon="-0.21006"/>
            <trkpt lat="52.57618" lon="-0.2103"/>
            <trkpt lat="52.57553" lon="-0.21095"/>
            <trkpt lat="52.57444" lon="-0.21204"/>
            <trkpt lat="52.57425" lon="-0.21231"/>
            <trkpt lat="52.5738" lon="-0.21306"/>
            <trkpt lat="52.57378" lon="-0.21313"/>
            <trkpt lat="52.57354" lon="-0.21375"/>
            <trkpt lat="52.57338" lon="-0.2149"/>
            <trkpt lat="52.57334" lon="-0.21517"/>
            <trkpt lat="52.57334" lon="-0.21517"/>
            <trkpt lat="52.57328" lon="-0.21556"/>
            <trkpt lat="52.57316" lon="-0.21599"/>
            <trkpt lat="52.57306" lon="-0.21604"/>
            <trkpt lat="52.57301" lon="-0.21609"/>
            <trkpt lat="52.5727" lon="-0.21622"/>
            <trkpt lat="52.57226" lon="-0.21601"/>
            <trkpt lat="52.57175" lon="-0.21579"/>
            <trkpt lat="52.57139" lon="-0.21555"/>
            <trkpt lat="52.57111" lon="-0.21536"/>
            <trkpt lat="52.57099" lon="-0.21606"/>
            <trkpt lat="52.57092" lon="-0.21679"/>
            <trkpt lat="52.57088" lon="-0.21778"/>
            <trkpt lat="52.57087" lon="-0.21805"/>
            <trkpt lat="52.56982" lon="-0.21815"/>
            <trkpt lat="52.56949" lon="-0.21796"/>
            <trkpt lat="52.56875" lon="-0.21751"/>
            <trkpt lat="52.56907" lon="-0.21623"/>
            <trkpt lat="52.56911" lon="-0.21587"/>
        </trkseg>
    </trk>
</gpx>
